OBJECT_NAME,OBJECT_ID,EPOCH,MEAN_MOTION,ECCENTRICITY,INCLINATION,RA_OF_ASC_NODE,ARG_OF_PERICENTER,MEAN_ANOMALY,EPHEMERIS_TYPE,CLASSIFICATION_TYPE,NORAD_CAT_ID,ELEMENT_SET_NO,REV_AT_EPOCH,BSTAR,MEAN_MOTION_DOT,MEAN_MOTION_DDOT
SUOMI NPP,2011-061A,2026-07-23T13:41:13.657344,14.19523877,.00011872,98.7956,145.1993,179.7398,180.3779,0,U,37849,999,76360,.40750773E-4,.42E-6,0
YAOGAN-12,2011-066B,2026-07-23T15:21:31.825152,15.26953864,.00109298,97.1129,241.4978,96.4287,263.8197,0,U,37875,999,81760,.28900279E-3,.7592E-4,0
BEIDOU-2 M4,2012-018B,2026-07-23T15:13:16.737600,1.86229554,.00123057,55.6237,302.8566,271.9994,87.8924,0,U,38251,999,9662,0,-.95E-6,0
ARIRANG-3 (KOMPSAT-3),2012-025B,2026-07-23T13:46:55.397856,14.62234581,.00056697,98.1190,161.4113,15.6357,344.5019,0,U,38338,999,75666,.85888449E-4,.386E-5,0
HORYU-2,2012-025D,2026-07-23T08:10:00.072768,14.91261842,.0009162,98.2215,338.7688,69.1836,291.0362,0,U,38340,999,75411,.2968884E-3,.2895E-4,0
CSSWE,2012-048D,2026-07-23T08:04:53.666400,15.46351152,.00393651,64.6638,330.8654,162.4697,197.7811,0,U,38761,999,12198,.65612403E-3,.33463E-3,0
CP5,2012-048F,2026-07-23T12:29:05.916768,15.28459736,.00724948,64.6453,32.4486,164.1713,196.1707,0,U,38763,999,12231,.51173179E-3,.15209E-3,0
METOP-B,2012-049A,2026-07-23T13:57:35.985600,14.21448081,.000144,98.6484,255.3509,213.3063,146.8024,0,U,38771,999,71843,.51790929E-4,.7E-6,0
SJ-9A,2012-056A,2026-07-23T12:54:48.138624,14.85541617,.00266285,97.6736,175.1817,135.1588,225.1786,0,U,38860,999,70498,.11371697E-3,.936E-5,0
COSMOS 2484 (RODNIK-S 6),2013-001C,2026-07-23T14:37:50.458656,12.42940329,.00253222,82.5006,199.2476,316.8565,43.0530,0,U,39059,999,61308,-.53114809E-3,-.64E-6,0
SARAL,2013-009A,2026-07-23T13:28:56.800128,14.32897287,.00021789,98.5560,30.6695,148.0723,212.0594,0,U,39086,999,70081,.39990419E-4,.65E-6,0
AAUSAT 3,2013-009B,2026-07-22T23:11:28.133376,14.39978734,.00126664,98.3714,26.9485,103.4647,256.7954,0,U,39087,999,70232,.17843313E-3,.519E-5,0
STRAND-1,2013-009E,2026-07-23T01:12:19.700064,14.37182344,.00097296,98.3941,23.4053,120.1275,240.0877,0,U,39090,999,70221,.95167118E-4,.241E-5,0
BRITE-AUSTRIA,2013-009F,2026-07-23T10:14:47.708448,14.36554972,.00111636,98.4015,22.9694,128.0957,232.1238,0,U,39091,999,70225,.66177349E-4,.152E-5,0
UNIBRITE,2013-009G,2026-07-23T10:37:07.215168,14.36426178,.00101275,98.4054,23.1042,124.4956,235.7188,0,U,39092,999,70219,.69980512E-4,.162E-5,0
AIST-2 (RS43),2013-015D,2026-07-23T14:49:15.589056,15.26633587,.00165853,64.8684,138.1767,248.6649,111.2712,0,U,39133,999,72946,.24752563E-3,.6333E-4,0
GAOFEN-1,2013-018A,2026-07-23T14:09:23.172192,14.76526973,.00177819,97.9079,275.9145,144.8647,215.3739,0,U,39150,999,71361,.12939766E-3,.853E-5,0
NEE-01 PEGASO,2013-018B,2026-07-22T20:03:20.143584,14.93816948,.00134607,98.1267,349.1763,51.2724,308.9696,0,U,39151,999,71602,.20250938E-3,.209E-4,0
TURKSAT-3USAT,2013-018C,2026-07-23T06:05:31.223904,14.96618023,.00110561,97.7919,294.9337,346.1461,13.9456,0,U,39152,999,71648,.26819569E-3,.3E-4,0
CUBEBUG-1 (CAPITAN BETO),2013-018D,2026-07-23T14:05:05.873856,14.97490006,.00117335,98.1695,6.1605,34.5205,325.6775,0,U,39153,999,71651,.27375504E-3,.313E-4,0
PROBA-V,2013-021A,2026-07-23T09:15:47.880576,14.23604538,.00049188,98.3612,181.2104,40.4967,319.6578,0,U,39159,999,68626,.42411906E-4,.56E-6,0
ESTCUBE 1,2013-021C,2026-07-23T03:03:30.326112,14.81493197,.00067203,97.7273,257.0483,254.0598,105.9875,0,U,39161,999,71034,.16808199E-3,.1267E-4,0
ARIRANG-5 (KOMPSAT-5),2013-042A,2026-07-23T14:42:15.543360,15.04505382,.00043421,97.6202,30.8013,32.0112,328.1378,0,U,39227,999,70933,.82906668E-4,.11E-4,0
GONETS-M 5,2013-048A,2026-07-23T13:55:09.871104,12.42892682,.00175995,82.4853,320.6951,132.4240,227.8331,0,U,39249,999,58340,-.34005604E-3,-.37E-6,0
GONETS-M 7,2013-048C,2026-07-23T13:00:52.229088,12.42915657,.00183902,82.4921,323.6597,133.5884,226.6725,0,U,39251,999,58335,-.5329114E-4,.3E-7,0
FENGYUN 3C,2013-052A,2026-07-23T13:57:57.819744,14.15762211,.00134444,98.5007,176.7908,279.8450,80.1207,0,U,39260,999,66371,.53476052E-4,.64E-6,0
CASSIOPE,2013-055A,2026-07-23T12:52:45.045408,15.27720645,.02814,80.9135,22.4706,299.5475,57.7972,0,U,39265,999,67321,.21696064E-3,.20243E-3,-.466192E-6
APRIZESAT 7,2013-066A,2026-07-23T07:29:24.736704,14.91633577,.00373884,97.7725,157.0178,91.4811,269.0691,0,U,39416,999,68661,.10065051E-3,.967E-5,0
ZACUBE-1 (TSHEPISOSAT),2013-066B,2026-07-23T07:58:43.857984,15.01362379,.00440736,97.7990,166.8439,129.2358,231.2791,0,U,39417,999,68615,.26444517E-3,.3415E-4,0
APRIZESAT 8,2013-066K,2026-07-23T07:51:31.648032,14.87706025,.00461781,97.8232,151.2954,165.1340,195.1247,0,U,39425,999,68504,.83114032E-4,.715E-5,0
